{
  "type": "FeatureCollection",
  "features": [
    {
      "type": "Feature",
      "properties": {
        "norad_id": 26766,
        "name": "INTELSAT 10 (IS-10)",
        "group": "intelsat",
        "lat": -0.7554374443648146,
        "lon": 56.013042420003,
        "alt_km": 36144.63099564628,
        "timestamp": "2025-12-16T13:52:37.197030+00:00",
        "meta_object_name": "INTELSAT 10 (IS-10)",
        "meta_object_id": "2001-019A",
        "meta_epoch": "2025-12-15T13:59:19.764960",
        "meta_mean_motion": 0.99077622,
        "meta_eccentricity": 0.00076924,
        "meta_inclination": 8.6363,
        "meta_ra_of_asc_node": 61.1289,
        "meta_arg_of_pericenter": 227.1002,
        "meta_mean_anomaly": 132.6392,
        "meta_ephemeris_type": 0,
        "meta_classification_type": "U",
        "meta_norad_cat_id": 26766,
        "meta_element_set_no": 999,
        "meta_rev_at_epoch": 4375,
        "meta_bstar": 0,
        "meta_mean_motion_dot": -2.35e-06,
        "meta_mean_motion_ddot": 0,
        "tle_line1": "1 26766U 01019A   25349.58286765 -.00000235  00000+0  00000+0 0  9997",
        "tle_line2": "2 26766   8.6363  61.1289 0007692 227.1002 132.6392  0.99077622 43757"
      },
      "geometry": {
        "type": "Point",
        "coordinates": [
          56.013042420003,
          -0.7554374443648146
        ]
      }
    },
    {
      "type": "Feature",
      "properties": {
        "norad_id": 26900,
        "name": "INTELSAT 902 (IS-902)",
        "group": "intelsat",
        "lat": 1.0090520995344052,
        "lon": -116.45708374705497,
        "alt_km": 35768.42223487702,
        "timestamp": "2025-12-16T13:52:37.197053+00:00",
        "meta_object_name": "INTELSAT 902 (IS-902)",
        "meta_object_id": "2001-039A",
        "meta_epoch": "2025-12-15T13:09:02.081664",
        "meta_mean_motion": 1.0027087,
        "meta_eccentricity": 0.00045028,
        "meta_inclination": 5.6536,
        "meta_ra_of_asc_node": 74.0372,
        "meta_arg_of_pericenter": 189.6359,
        "meta_mean_anomaly": 327.9329,
        "meta_ephemeris_type": 0,
        "meta_classification_type": "U",
        "meta_norad_cat_id": 26900,
        "meta_element_set_no": 999,
        "meta_rev_at_epoch": 8885,
        "meta_bstar": 0,
        "meta_mean_motion_dot": -2.65e-06,
        "meta_mean_motion_ddot": 0,
        "tle_line1": "1 26900U 01039A   25349.54794076 -.00000265  00000+0  00000+0 0  9997",
        "tle_line2": "2 26900   5.6536  74.0372 0004502 189.6359 327.9329  1.00270870 88858"
      },
      "geometry": {
        "type": "Point",
        "coordinates": [
          -116.45708374705497,
          1.0090520995344052
        ]
      }
    },
    {
      "type": "Feature",
      "properties": {
        "norad_id": 27380,
        "name": "INTELSAT 904 (IS-904)",
        "group": "intelsat",
        "lat": -1.2237460318422304,
        "lon": -97.95894171005123,
        "alt_km": 35781.70190024674,
        "timestamp": "2025-12-16T13:52:37.197068+00:00",
        "meta_object_name": "INTELSAT 904 (IS-904)",
        "meta_object_id": "2002-007A",
        "meta_epoch": "2025-12-15T11:31:33.915360",
        "meta_mean_motion": 1.00272271,
        "meta_eccentricity": 0.00015888,
        "meta_inclination": 6.4613,
        "meta_ra_of_asc_node": 71.4012,
        "meta_arg_of_pericenter": 238.6774,
        "meta_mean_anomaly": 275.6976,
        "meta_ephemeris_type": 0,
        "meta_classification_type": "U",
        "meta_norad_cat_id": 27380,
        "meta_element_set_no": 999,
        "meta_rev_at_epoch": 4992,
        "meta_bstar": 0,
        "meta_mean_motion_dot": -2.08e-06,
        "meta_mean_motion_ddot": 0,
        "tle_line1": "1 27380U 02007A   25349.48025365 -.00000208  00000+0  00000+0 0  9994",
        "tle_line2": "2 27380   6.4613  71.4012 0001588 238.6774 275.6976  1.00272271 49924"
      },
      "geometry": {
        "type": "Point",
        "coordinates": [
          -97.95894171005123,
          -1.2237460318422304
        ]
      }
    },
    {
      "type": "Feature",
      "properties": {
        "norad_id": 27426,
        "name": "DIRECTV 5 (TEMPO 1)",
        "group": "intelsat",
        "lat": 4.236981760926249,
        "lon": -176.49495848191387,
        "alt_km": 35786.91494658491,
        "timestamp": "2025-12-16T13:52:37.197081+00:00",
        "meta_object_name": "DIRECTV 5 (TEMPO 1)",
        "meta_object_id": "2002-023A",
        "meta_epoch": "2025-12-15T21:25:27.545952",
        "meta_mean_motion": 1.00272518,
        "meta_eccentricity": 0.00034034,
        "meta_inclination": 4.41,
        "meta_ra_of_asc_node": 77.6166,
        "meta_arg_of_pericenter": 202.4031,
        "meta_mean_anomaly": 16.0158,
        "meta_ephemeris_type": 0,
        "meta_classification_type": "U",
        "meta_norad_cat_id": 27426,
        "meta_element_set_no": 999,
        "meta_rev_at_epoch": 8628,
        "meta_bstar": 0,
        "meta_mean_motion_dot": -3.7e-07,
        "meta_mean_motion_ddot": 0,
        "tle_line1": "1 27426U 02023A   25349.89267993 -.00000037  00000+0  00000+0 0  9993",
        "tle_line2": "2 27426   4.4100  77.6166 0003403 202.4031  16.0158  1.00272518 86288"
      },
      "geometry": {
        "type": "Point",
        "coordinates": [
          -176.49495848191387,
          4.236981760926249
        ]
      }
    },
    {
      "type": "Feature",
      "properties": {
        "norad_id": 27438,
        "name": "INTELSAT 905 (IS-905)",
        "group": "intelsat",
        "lat": 6.271705290405575,
        "lon": 156.39568435918272,
        "alt_km": 35789.55088321483,
        "timestamp": "2025-12-16T13:52:37.197094+00:00",
        "meta_object_name": "INTELSAT 905 (IS-905)",
        "meta_object_id": "2002-027A",
        "meta_epoch": "2025-12-14T04:33:38.635200",
        "meta_mean_motion": 1.00274201,
        "meta_eccentricity": 0.00026501,
        "meta_inclination": 6.2894,
        "meta_ra_of_asc_node": 72.0398,
        "meta_arg_of_pericenter": 202.1249,
        "meta_mean_anomaly": 100.1717,
        "meta_ephemeris_type": 0,
        "meta_classification_type": "U",
        "meta_norad_cat_id": 27438,
        "meta_element_set_no": 999,
        "meta_rev_at_epoch": 4950,
        "meta_bstar": 0,
        "meta_mean_motion_dot": 1.08e-06,
        "meta_mean_motion_ddot": 0,
        "tle_line1": "1 27438U 02027A   25348.19003050  .00000108  00000+0  00000+0 0  9992",
        "tle_line2": "2 27438   6.2894  72.0398 0002650 202.1249 100.1717  1.00274201 49509"
      },
      "geometry": {
        "type": "Point",
        "coordinates": [
          156.39568435918272,
          6.271705290405575
        ]
      }
    },
    {
      "type": "Feature",
      "properties": {
        "norad_id": 27445,
        "name": "GALAXY 3C (G-3C)",
        "group": "intelsat",
        "lat": 2.868343418411671,
        "lon": -161.20100048272104,
        "alt_km": 35782.04886236729,
        "timestamp": "2025-12-16T13:52:37.197107+00:00",
        "meta_object_name": "GALAXY 3C (G-3C)",
        "meta_object_id": "2002-030A",
        "meta_epoch": "2025-12-15T21:29:49.627392",
        "meta_mean_motion": 1.0027188,
        "meta_eccentricity": 0.00010916,
        "meta_inclination": 3.2718,
        "meta_ra_of_asc_node": 80.4743,
        "meta_arg_of_pericenter": 81.448,
        "meta_mean_anomaly": 150.465,
        "meta_ephemeris_type": 0,
        "meta_classification_type": "U",
        "meta_norad_cat_id": 27445,
        "meta_element_set_no": 999,
        "meta_rev_at_epoch": 4465,
        "meta_bstar": 0,
        "meta_mean_motion_dot": -1.32e-06,
        "meta_mean_motion_ddot": 0,
        "tle_line1": "1 27445U 02030A   25349.89571328 -.00000132  00000+0  00000+0 0  9998",
        "tle_line2": "2 27445   3.2718  80.4743 0001091  81.4480 150.4650  1.00271880 44654"
      },
      "geometry": {
        "type": "Point",
        "coordinates": [
          -161.20100048272104,
          2.868343418411671
        ]
      }
    },
    {
      "type": "Feature",
      "properties": {
        "norad_id": 27513,
        "name": "INTELSAT 906 (IS-906)",
        "group": "intelsat",
        "lat": -5.205983867491583,
        "lon": -2.130840773902853,
        "alt_km": 35785.499342350624,
        "timestamp": "2025-12-16T13:52:37.197120+00:00",
        "meta_object_name": "INTELSAT 906 (IS-906)",
        "meta_object_id": "2002-041A",
        "meta_epoch": "2025-12-15T20:32:25.123776",
        "meta_mean_motion": 1.00272067,
        "meta_eccentricity": 0.00062491,
        "meta_inclination": 5.3371,
        "meta_ra_of_asc_node": 75.1943,
        "meta_arg_of_pericenter": 195.1621,
        "meta_mean_anomaly": 186.628,
        "meta_ephemeris_type": 0,
        "meta_classification_type": "U",
        "meta_norad_cat_id": 27513,
        "meta_element_set_no": 999,
        "meta_rev_at_epoch": 8519,
        "meta_bstar": 0,
        "meta_mean_motion_dot": 3.2e-07,
        "meta_mean_motion_ddot": 0,
        "tle_line1": "1 27513U 02041A   25349.85584634  .00000032  00000+0  00000+0 0  9994",
        "tle_line2": "2 27513   5.3371  75.1943 0006249 195.1621 186.6280  1.00272067 85193"
      },
      "geometry": {
        "type": "Point",
        "coordinates": [
          -2.130840773902853,
          -5.205983867491583
        ]
      }
    }
  ]
}